[{"OBJECT_NAME":"METOP-C","OBJECT_ID":"2018-087A","EPOCH":"2026-03-09T21:24:06.212448","MEAN_MOTION":14.21497031,"ECCENTRICITY":0.0002203,"INCLINATION":98.6765,"RA_OF_ASC_NODE":130.2612,"ARG_OF_PERICENTER":99.586,"MEAN_ANOMALY":260.5566,"EPHEMERIS_TYPE":0,"CLASSIFICATION_TYPE":"U","NORAD_CAT_ID":43689,"ELEMENT_SET_NO":999,"REV_AT_EPOCH":38072,"BSTAR":8.1967538e-5,"MEAN_MOTION_DOT":1.36e-6,"MEAN_MOTION_DDOT":0},{"OBJECT_NAME":"NOAA 16 DEB","OBJECT_ID":"2000-055NF","EPOCH":"2026-03-06T22:04:25.739040","MEAN_MOTION":14.17897693,"ECCENTRICITY":0.00313451,"INCLINATION":98.6402,"RA_OF_ASC_NODE":92.2838,"ARG_OF_PERICENTER":150.8208,"MEAN_ANOMALY":209.4727,"EPHEMERIS_TYPE":0,"CLASSIFICATION_TYPE":"U","NORAD_CAT_ID":41531,"ELEMENT_SET_NO":999,"REV_AT_EPOCH":50868,"BSTAR":0.0014329448,"MEAN_MOTION_DOT":2.901e-5,"MEAN_MOTION_DDOT":0}]
